{
  "type": "FeatureCollection",
  "features": [
    {
      "type": "Feature",
      "properties": {
        "norad_id": 29954,
        "name": "FENGYUN 1C DEB",
        "group": "fengyun-1c-debris",
        "lat": 64.73347945649806,
        "lon": 11.597922602302091,
        "alt_km": 824.4872104297001,
        "timestamp": "2025-12-20T11:30:28.649864+00:00",
        "meta_object_name": "FENGYUN 1C DEB",
        "meta_object_id": "1999-025KC",
        "meta_epoch": "2025-12-20T01:08:55.627584",
        "meta_mean_motion": 14.34262417,
        "meta_eccentricity": 0.0074573,
        "meta_inclination": 100.1504,
        "meta_ra_of_asc_node": 33.3989,
        "meta_arg_of_pericenter": 248.6455,
        "meta_mean_anomaly": 110.6754,
        "meta_ephemeris_type": 0,
        "meta_classification_type": "U",
        "meta_norad_cat_id": 29954,
        "meta_element_set_no": 999,
        "meta_rev_at_epoch": 98292,
        "meta_bstar": 0.00058232,
        "meta_mean_motion_dot": 1.628e-05,
        "meta_mean_motion_ddot": 0,
        "tle_line1": "1 29954U 99025KC  25354.04786606  .00001628  00000+0  58232-3 0  9999",
        "tle_line2": "2 29954 100.1504  33.3989 0074573 248.6455 110.6754 14.34262417982925"
      },
      "geometry": {
        "type": "Point",
        "coordinates": [
          11.597922602302091,
          64.73347945649806
        ]
      }
    },
    {
      "type": "Feature",
      "properties": {
        "norad_id": 29955,
        "name": "FENGYUN 1C DEB",
        "group": "fengyun-1c-debris",
        "lat": -80.68429818389524,
        "lon": 160.67787652538604,
        "alt_km": 767.3197584978552,
        "timestamp": "2025-12-20T11:30:28.649875+00:00",
        "meta_object_name": "FENGYUN 1C DEB",
        "meta_object_id": "1999-025KD",
        "meta_epoch": "2025-12-20T03:51:56.223360",
        "meta_mean_motion": 14.38300568,
        "meta_eccentricity": 0.0008034,
        "meta_inclination": 99.2738,
        "meta_ra_of_asc_node": 75.4173,
        "meta_arg_of_pericenter": 227.341,
        "meta_mean_anomaly": 195.5486,
        "meta_ephemeris_type": 0,
        "meta_classification_type": "U",
        "meta_norad_cat_id": 29955,
        "meta_element_set_no": 999,
        "meta_rev_at_epoch": 98168,
        "meta_bstar": 0.00095022,
        "meta_mean_motion_dot": 2.843e-05,
        "meta_mean_motion_ddot": 0,
        "tle_line1": "1 29955U 99025KD  25354.16106740  .00002843  00000+0  95022-3 0  9996",
        "tle_line2": "2 29955  99.2738  75.4173 0008034 227.3410 195.5486 14.38300568981689"
      },
      "geometry": {
        "type": "Point",
        "coordinates": [
          160.67787652538604,
          -80.68429818389524
        ]
      }
    },
    {
      "type": "Feature",
      "properties": {
        "norad_id": 29956,
        "name": "FENGYUN 1C DEB",
        "group": "fengyun-1c-debris",
        "lat": 18.86244758312436,
        "lon": -153.86073746547123,
        "alt_km": 909.9999768725984,
        "timestamp": "2025-12-20T11:30:28.649885+00:00",
        "meta_object_name": "FENGYUN 1C DEB",
        "meta_object_id": "1999-025KE",
        "meta_epoch": "2025-12-20T02:17:44.527200",
        "meta_mean_motion": 14.06172083,
        "meta_eccentricity": 0.0053333,
        "meta_inclination": 98.7908,
        "meta_ra_of_asc_node": 22.7362,
        "meta_arg_of_pericenter": 356.8923,
        "meta_mean_anomaly": 21.7221,
        "meta_ephemeris_type": 0,
        "meta_classification_type": "U",
        "meta_norad_cat_id": 29956,
        "meta_element_set_no": 999,
        "meta_rev_at_epoch": 97153,
        "meta_bstar": 0.00015082,
        "meta_mean_motion_dot": 2.08e-06,
        "meta_mean_motion_ddot": 0,
        "tle_line1": "1 29956U 99025KE  25354.09565425  .00000208  00000+0  15082-3 0  9999",
        "tle_line2": "2 29956  98.7908  22.7362 0053333 356.8923  21.7221 14.06172083971531"
      },
      "geometry": {
        "type": "Point",
        "coordinates": [
          -153.86073746547123,
          18.86244758312436
        ]
      }
    },
    {
      "type": "Feature",
      "properties": {
        "norad_id": 29957,
        "name": "FENGYUN 1C DEB",
        "group": "fengyun-1c-debris",
        "lat": 27.604115778777874,
        "lon": 117.20504989823758,
        "alt_km": 736.119162871656,
        "timestamp": "2025-12-20T11:30:28.649896+00:00",
        "meta_object_name": "FENGYUN 1C DEB",
        "meta_object_id": "1999-025KF",
        "meta_epoch": "2025-12-19T07:24:00.253728",
        "meta_mean_motion": 14.5132991,
        "meta_eccentricity": 0.0037355,
        "meta_inclination": 98.9199,
        "meta_ra_of_asc_node": 120.6738,
        "meta_arg_of_pericenter": 159.1038,
        "meta_mean_anomaly": 233.7026,
        "meta_ephemeris_type": 0,
        "meta_classification_type": "U",
        "meta_norad_cat_id": 29957,
        "meta_element_set_no": 999,
        "meta_rev_at_epoch": 97587,
        "meta_bstar": 0.0030533,
        "meta_mean_motion_dot": 0.0001224,
        "meta_mean_motion_ddot": 0,
        "tle_line1": "1 29957U 99025KF  25353.30833627  .00012240  00000+0  30533-2 0  9991",
        "tle_line2": "2 29957  98.9199 120.6738 0037355 159.1038 233.7026 14.51329910975870"
      },
      "geometry": {
        "type": "Point",
        "coordinates": [
          117.20504989823758,
          27.604115778777874
        ]
      }
    },
    {
      "type": "Feature",
      "properties": {
        "norad_id": 29958,
        "name": "FENGYUN 1C DEB",
        "group": "fengyun-1c-debris",
        "lat": -1.8023982830883452,
        "lon": 8.894023737061746,
        "alt_km": 820.7418859902273,
        "timestamp": "2025-12-20T11:30:28.649905+00:00",
        "meta_object_name": "FENGYUN 1C DEB",
        "meta_object_id": "1999-025KG",
        "meta_epoch": "2025-12-19T21:56:05.635104",
        "meta_mean_motion": 14.14465828,
        "meta_eccentricity": 0.0054037,
        "meta_inclination": 98.668,
        "meta_ra_of_asc_node": 8.0701,
        "meta_arg_of_pericenter": 312.4929,
        "meta_mean_anomaly": 47.1685,
        "meta_ephemeris_type": 0,
        "meta_classification_type": "U",
        "meta_norad_cat_id": 29958,
        "meta_element_set_no": 999,
        "meta_rev_at_epoch": 97552,
        "meta_bstar": 0.00024225,
        "meta_mean_motion_dot": 4.28e-06,
        "meta_mean_motion_ddot": 0,
        "tle_line1": "1 29958U 99025KG  25353.91395411  .00000428  00000+0  24225-3 0  9990",
        "tle_line2": "2 29958  98.6680   8.0701 0054037 312.4929  47.1685 14.14465828975529"
      },
      "geometry": {
        "type": "Point",
        "coordinates": [
          8.894023737061746,
          -1.8023982830883452
        ]
      }
    },
    {
      "type": "Feature",
      "properties": {
        "norad_id": 29959,
        "name": "FENGYUN 1C DEB",
        "group": "fengyun-1c-debris",
        "lat": 76.7127298940126,
        "lon": -114.03669289579257,
        "alt_km": 892.8068262367215,
        "timestamp": "2025-12-20T11:30:28.649916+00:00",
        "meta_object_name": "FENGYUN 1C DEB",
        "meta_object_id": "1999-025KH",
        "meta_epoch": "2025-12-19T13:33:42.531840",
        "meta_mean_motion": 14.06017345,
        "meta_eccentricity": 0.0041465,
        "meta_inclination": 98.8073,
        "meta_ra_of_asc_node": 24.0407,
        "meta_arg_of_pericenter": 308.3941,
        "meta_mean_anomaly": 205.4306,
        "meta_ephemeris_type": 0,
        "meta_classification_type": "U",
        "meta_norad_cat_id": 29959,
        "meta_element_set_no": 999,
        "meta_rev_at_epoch": 97036,
        "meta_bstar": 0.00013739,
        "meta_mean_motion_dot": 1.84e-06,
        "meta_mean_motion_ddot": 0,
        "tle_line1": "1 29959U 99025KH  25353.56507560  .00000184  00000+0  13739-3 0  9999",
        "tle_line2": "2 29959  98.8073  24.0407 0041465 308.3941 205.4306 14.06017345970362"
      },
      "geometry": {
        "type": "Point",
        "coordinates": [
          -114.03669289579257,
          76.7127298940126
        ]
      }
    },
    {
      "type": "Feature",
      "properties": {
        "norad_id": 29960,
        "name": "FENGYUN 1C DEB",
        "group": "fengyun-1c-debris",
        "lat": 73.82336305179186,
        "lon": -168.6926343130691,
        "alt_km": 891.9780093082618,
        "timestamp": "2025-12-20T11:30:28.649926+00:00",
        "meta_object_name": "FENGYUN 1C DEB",
        "meta_object_id": "1999-025KJ",
        "meta_epoch": "2025-12-19T21:43:55.626816",
        "meta_mean_motion": 14.16415605,
        "meta_eccentricity": 0.0090812,
        "meta_inclination": 98.6148,
        "meta_ra_of_asc_node": 339.2455,
        "meta_arg_of_pericenter": 265.4823,
        "meta_mean_anomaly": 153.3901,
        "meta_ephemeris_type": 0,
        "meta_classification_type": "U",
        "meta_norad_cat_id": 29960,
        "meta_element_set_no": 999,
        "meta_rev_at_epoch": 97556,
        "meta_bstar": 0.00031444,
        "meta_mean_motion_dot": 6.07e-06,
        "meta_mean_motion_ddot": 0,
        "tle_line1": "1 29960U 99025KJ  25353.90550494  .00000607  00000+0  31444-3 0  9996",
        "tle_line2": "2 29960  98.6148 339.2455 0090812 265.4823 153.3901 14.16415605975562"
      },
      "geometry": {
        "type": "Point",
        "coordinates": [
          -168.6926343130691,
          73.82336305179186
        ]
      }
    }
  ]
}